NORAD_CAT_ID,OBJECT_NAME,OBJECT_TYPE,EPOCH,MEAN_MOTION,ECCENTRICITY,INCLINATION,RA_OF_ASC_NODE,ARG_OF_PERICENTER,MEAN_ANOMALY,BSTAR,MEAN_MOTION_DOT,MEAN_MOTION_DDOT,TLE_LINE0,TLE_LINE1,TLE_LINE2,SEMIMAJOR_AXIS,PERIOD,APOGEE,PERIGEE,DECAYED
55946.0,STARLINK-5857,PAYLOAD,2024-03-05 19:21:55,14.98312142,0.0002781,70.0004,334.7542,264.792,95.2922,9.6992e-05,1.064e-05,0.0,0 STARLINK-5857,1 55946U 23037AJ  24065.80688853  .00001064  00000-0  96992-4 0  9997,2 55946  70.0004 334.7542 0002781 264.7920  95.2922 14.98312142 54393,6950.248,96.108,574.046,570.18,0.0
55946.0,STARLINK-5857,PAYLOAD,2024-03-06 03:22:35,14.98327587,0.0002442,70.0007,333.9127,256.0429,104.0459,-6.8162e-05,-9.06e-06,0.0,0 STARLINK-5857,1 55946U 23037AJ  24066.14068571 -.00000906  00000-0 -68162-4 0  9998,2 55946  70.0007 333.9127 0002442 256.0429 104.0459 14.98327587 54447,6950.2,96.107,573.763,570.368,0.0
55946.0,STARLINK-5857,PAYLOAD,2024-03-07 03:24:35,14.9832965,0.000275,70.0006,331.3899,266.08,94.0045,5.4852e-05,5.62e-06,0.0,0 STARLINK-5857,1 55946U 23037AJ  24067.14208142  .00000562  00000-0  54852-4 0  9996,2 55946  70.0006 331.3899 0002750 266.0800  94.0045 14.98329650 54598,6950.194,96.107,573.97,570.148,0.0
55946.0,STARLINK-5857,PAYLOAD,2024-03-07 11:25:16,14.98331262,0.0002668,70.0008,330.5468,264.8456,95.2399,-2.4706e-05,-3.88e-06,0.0,0 STARLINK-5857,1 55946U 23037AJ  24067.47588234 -.00000388  00000-0 -24706-4 0  9998,2 55946  70.0008 330.5468 0002668 264.8456  95.2399 14.98331262 54300,6950.189,96.107,573.908,570.2,0.0
55946.0,STARLINK-5857,PAYLOAD,2024-03-08 03:26:36,14.98323471,0.0002684,70.0005,328.8636,268.6227,91.4625,0.00017676,2.016e-05,0.0,0 STARLINK-5857,1 55946U 23037AJ  24068.14348376  .00002016  00000-0  17676-3 0  9999,2 55946  70.0005 328.8636 0002684 268.6227  91.4625 14.98323471 54741,6950.213,96.107,573.944,570.213,0.0
55946.0,STARLINK-5857,PAYLOAD,2024-03-09 03:28:36,14.98366642,0.0002339,70.0003,326.3387,272.9737,87.1154,-0.00046589,-5.652e-05,0.0,0 STARLINK-5857,1 55946U 23037AJ  24069.14486963 -.00005652  00000-0 -46589-3 0  9991,2 55946  70.0003 326.3387 0002339 272.9737  87.1154 14.98366642 54898,6950.08,96.105,573.57,570.319,0.0
55946.0,STARLINK-5857,PAYLOAD,2024-03-09 09:53:09,14.98345362,0.0002879,70.0015,325.6634,279.9251,80.1583,-0.00017587,-2.192e-05,0.0,0 STARLINK-5857,1 55946U 23037AJ  24069.41191508 -.00002192  00000-0 -17587-3 0  9991,2 55946  70.0015 325.6634 0002879 279.9251  80.1583 14.98345362 54935,6950.145,96.106,574.011,570.009,0.0
55946.0,STARLINK-5857,PAYLOAD,2024-03-09 16:17:42,14.98327546,0.0002829,70.0,324.9925,275.3861,84.6976,-2.4634e-05,-3.87e-06,0.0,0 STARLINK-5857,1 55946U 23037AJ  24069.67896277 -.00000387  00000-0 -24634-4 0  9990,2 55946  70.0000 324.9925 0002829 275.3861  84.6976 14.98327546 54979,6950.2,96.107,574.032,570.099,0.0
55946.0,STARLINK-5857,PAYLOAD,2024-03-10 03:30:38,14.9833406,0.0002771,69.9997,323.8143,273.2716,86.8126,3.9002e-05,3.72e-06,0.0,0 STARLINK-5857,1 55946U 23037AJ  24070.14627741  .00000372  00000-0  39002-4 0  9999,2 55946  69.9997 323.8143 0002771 273.2716  86.8126 14.98334060 55042,6950.18,96.107,573.971,570.119,0.0
55946.0,STARLINK-5857,PAYLOAD,2024-03-10 09:55:10,14.98332198,0.0002755,69.9997,323.1404,273.3884,86.696,-4.8836e-05,-6.76e-06,0.0,0 STARLINK-5857,1 55946U 23037AJ  24070.41331907 -.00000676  00000-0 -48836-4 0  9999,2 55946  69.9997 323.1404 0002755 273.3884  86.6960 14.98332198 54744,6950.186,96.107,573.966,570.136,0.0
55946.0,STARLINK-5857,PAYLOAD,2024-03-10 21:08:05,14.98351987,0.0002884,69.9996,321.9625,273.0354,87.0475,8.4676e-05,9.18e-06,0.0,0 STARLINK-5857,1 55946U 23037AJ  24070.88061984  .00000918  00000-0  84676-4 0  9994,2 55946  69.9996 321.9625 0002884 273.0354  87.0475 14.98351987 55155,6950.125,96.106,573.994,569.985,0.0
55946.0,STARLINK-5857,PAYLOAD,2024-03-10 22:44:11,14.98372123,0.0003141,69.9993,321.7941,273.1176,86.9624,0.00029985,3.49e-05,0.0,0 STARLINK-5857,1 55946U 23037AJ  24070.94736011  .00003490  00000-0  29985-3 0  9990,2 55946  69.9993 321.7941 0003141 273.1176  86.9624 14.98372123 54823,6950.063,96.104,574.111,569.745,0.0
55946.0,STARLINK-5857,PAYLOAD,2024-03-11 03:32:39,14.9832394,0.0002753,70.0005,321.2879,278.1052,81.9794,-0.00019626,-2.433e-05,0.0,0 STARLINK-5857,1 55946U 23037AJ  24071.14768112 -.00002433  00000-0 -19626-3 0  9999,2 55946  70.0005 321.2879 0002753 278.1052  81.9794 14.98323940 55198,6950.212,96.107,573.99,570.163,0.0
55946.0,STARLINK-5857,PAYLOAD,2024-03-12 16:23:44,14.98333542,0.0002851,69.9993,317.4167,277.5792,82.5043,-0.0001422,-1.789e-05,0.0,0 STARLINK-5857,1 55946U 23037AJ  24072.68315683 -.00001789  00000-0 -14220-3 0  9998,2 55946  69.9993 317.4167 0002851 277.5792  82.5043 14.98333542 55420,6950.182,96.107,574.028,570.065,0.0
55946.0,STARLINK-5857,PAYLOAD,2024-03-12 22:48:16,14.98345571,0.0003012,69.9995,316.7436,270.5088,89.5726,-0.00035331,-4.308e-05,0.0,0 STARLINK-5857,1 55946U 23037AJ  24072.95019444 -.00004308  00000-0 -35331-3 0  9990,2 55946  69.9995 316.7436 0003012 270.5088  89.5726 14.98345571 55121,6950.145,96.106,574.103,569.916,0.0
55946.0,STARLINK-5857,PAYLOAD,2024-03-13 10:01:13,14.98321754,0.0002952,69.9989,315.5655,269.4411,90.641,9.0279e-05,9.84e-06,0.0,0 STARLINK-5857,1 55946U 23037AJ  24073.41751665  .00000984  00000-0  90279-4 0  9997,2 55946  69.9989 315.5655 0002952 269.4411  90.6410 14.98321754 55190,6950.218,96.108,574.135,570.032,0.0
55946.0,STARLINK-5857,PAYLOAD,2024-03-13 22:50:17,14.98326325,0.0002972,69.9993,314.2187,269.817,90.2649,7.0616e-05,7.5e-06,0.0,0 STARLINK-5857,1 55946U 23037AJ  24073.95159672  .00000750  00000-0  70616-4 0  9990,2 55946  69.9993 314.2187 0002972 269.8170  90.2649 14.98326325 55277,6950.204,96.107,574.135,570.004,0.0
55946.0,STARLINK-5857,PAYLOAD,2024-03-14 02:02:33,14.98328217,0.0002945,69.9998,313.882,269.916,90.1661,9.02e-05,9.83e-06,0.0,0 STARLINK-5857,1 55946U 23037AJ  24074.08511518  .00000983  00000-0  90200-4 0  9995,2 55946  69.9998 313.8820 0002945 269.9160  90.1661 14.98328217 55636,6950.198,96.107,574.11,570.017,0.0
55946.0,STARLINK-5857,PAYLOAD,2024-03-14 21:16:10,14.98327854,0.0002934,69.9995,311.8622,269.9659,90.1164,2.1389e-05,1.62e-06,0.0,0 STARLINK-5857,1 55946U 23037AJ  24074.88623832  .00000162  00000-0  21389-4 0  9997,2 55946  69.9995 311.8622 0002934 269.9659  90.1164 14.98327854 55412,6950.2,96.107,574.104,570.025,0.0
55946.0,STARLINK-5857,PAYLOAD,2024-03-15 02:04:34,14.98330976,0.0002883,69.9994,311.3571,269.8943,90.1886,5.4339e-05,5.55e-06,0.0,0 STARLINK-5857,1 55946U 23037AJ  24075.08651526  .00000555  00000-0  54339-4 0  9998,2 55946  69.9994 311.3571 0002883 269.8943  90.1886 14.98330976 55787,6950.19,96.107,574.059,570.051,0.0
55946.0,STARLINK-5857,PAYLOAD,2024-03-15 22:54:19,14.98330542,0.0002667,69.9996,309.1692,268.3743,91.711,-2.1779e-05,-3.53e-06,0.0,0 STARLINK-5857,1 55946U 23037AJ  24075.95439758 -.00000353  00000-0 -21779-4 0  9995,2 55946  69.9996 309.1692 0002667 268.3743  91.7110 14.98330542 55573,6950.191,96.107,573.91,570.203,0.0
55946.0,STARLINK-5857,PAYLOAD,2024-03-16 14:55:40,14.9832993,0.0002655,69.9994,307.4862,264.7728,95.3128,-1.5073e-05,-2.73e-06,0.0,0 STARLINK-5857,1 55946U 23037AJ  24076.62199699 -.00000273  00000-0 -15073-4 0  9998,2 55946  69.9994 307.4862 0002655 264.7728  95.3128 14.98329930 55670,6950.193,96.107,573.903,570.213,0.0
55946.0,STARLINK-5857,PAYLOAD,2024-03-16 19:44:04,14.98329417,0.0002696,69.9992,306.9813,263.2824,96.8028,-2.3298e-05,-3.71e-06,0.0,0 STARLINK-5857,1 55946U 23037AJ  24076.82227732 -.00000371  00000-0 -23298-4 0  9997,2 55946  69.9992 306.9813 0002696 263.2824  96.8028 14.98329417 56041,6950.195,96.107,573.933,570.186,0.0
55946.0,STARLINK-5857,PAYLOAD,2024-03-16 21:20:12,14.98329041,0.0002706,69.9992,306.8131,263.4159,96.6692,-2.769e-05,-4.23e-06,0.0,0 STARLINK-5857,1 55946U 23037AJ  24076.88903771 -.00000423  00000-0 -27690-4 0  9995,2 55946  69.9992 306.8131 0002706 263.4159  96.6692 14.98329041 55719,6950.196,96.107,573.942,570.18,0.0
55946.0,STARLINK-5857,PAYLOAD,2024-03-17 14:57:41,14.98328265,0.0002756,69.9991,304.9616,265.8316,94.2528,-9.4422e-06,-2.06e-06,0.0,0 STARLINK-5857,1 55946U 23037AJ  24077.62339805 -.00000206  00000-0 -94422-5 0  9996,2 55946  69.9991 304.9616 0002756 265.8316  94.2528 14.98328265 55822,6950.198,96.107,573.979,570.148,0.0
55946.0,STARLINK-5857,PAYLOAD,2024-03-17 19:46:05,14.9832801,0.000277,69.9991,304.4563,263.409,96.6754,-1.4e-05,-2.6e-06,0.0,0 STARLINK-5857,1 55946U 23037AJ  24077.82367827 -.00000260  00000-0 -14000-4 0  9996,2 55946  69.9991 304.4563 0002770 263.4090  96.6754 14.98328010 56193,6950.199,96.107,573.989,570.139,0.0
55946.0,STARLINK-5857,PAYLOAD,2024-03-17 21:22:13,14.98327455,0.0002789,69.999,304.288,263.7784,96.3057,-2.1068e-05,-3.44e-06,0.0,0 STARLINK-5857,1 55946U 23037AJ  24077.89043892 -.00000344  00000-0 -21068-4 0  9991,2 55946  69.9990 304.2880 0002789 263.7784  96.3057 14.98327455 55863,6950.201,96.107,574.004,570.127,0.0
55946.0,STARLINK-5857,PAYLOAD,2024-03-18 00:34:29,14.98328441,0.00028,69.9991,303.9516,265.7633,94.3206,-9.5372e-06,-2.07e-06,0.0,0 STARLINK-5857,1 55946U 23037AJ  24078.02395820 -.00000207  00000-0 -95372-5 0  9996,2 55946  69.9991 303.9516 0002800 265.7633  94.3206 14.98328441 55887,6950.198,96.107,574.009,570.117,0.0
55946.0,STARLINK-5857,PAYLOAD,2024-03-18 21:24:14,14.98329924,0.0002832,69.9988,301.7628,265.6231,94.4604,2.4275e-05,1.97e-06,0.0,0 STARLINK-5857,1 55946U 23037AJ  24078.89183646  .00000197  00000-0  24275-4 0  9991,2 55946  69.9988 301.7628 0002832 265.6231  94.4604 14.98329924 56017,6950.193,96.107,574.026,570.09,0.0
55946.0,STARLINK-5857,PAYLOAD,2024-03-19 00:36:30,14.98331048,0.000286,69.9987,301.4261,268.1719,91.9112,3.3029e-05,3.01e-06,0.0,0 STARLINK-5857,1 55946U 23037AJ  24079.02535542  .00000301  00000-0  33029-4 0  9997,2 55946  69.9987 301.4261 0002860 268.1719  91.9112 14.98331048 56371,6950.19,96.107,574.042,570.067,0.0
